{
  "norad_id": 48234,
  "name": "ONEWEB-0199",
  "history": [
    {
      "epoch": "2026-03-28T21:08:44.320128Z",
      "apogee_km": 1207.0224757435817,
      "perigee_km": 1204.5654337928554,
      "latitude_deg": -2.610855497433344e-05,
      "longitude_deg": 162.24077516593684,
      "height_km": 1208.7104171064968,
      "semi_major_axis_km": 7583.930954768218,
      "eccentricity": 0.00016199,
      "inclination_deg": 87.8958,
      "raan_deg": 305.7206,
      "arg_perigee_deg": 91.1827,
      "mean_anomaly_deg": 268.9488,
      "mean_motion_rev_day": 13.14501864
    },
    {
      "epoch": "2026-03-29T00:47:57.455232Z",
      "apogee_km": 1207.0277993348463,
      "perigee_km": 1204.5584716827252,
      "latitude_deg": -1.6376370437225572e-05,
      "longitude_deg": 107.25569587442624,
      "height_km": 1208.717201701794,
      "semi_major_axis_km": 7583.9301355087855,
      "eccentricity": 0.0001628,
      "inclination_deg": 87.8958,
      "raan_deg": 305.6903,
      "arg_perigee_deg": 91.5304,
      "mean_anomaly_deg": 268.6012,
      "mean_motion_rev_day": 13.14502077
    },
    {
      "epoch": "2026-03-30T02:22:29.510688Z",
      "apogee_km": 1207.0361839740972,
      "perigee_km": 1204.5501716618082,
      "latitude_deg": -3.83199362544915e-05,
      "longitude_deg": 82.35917990089212,
      "height_km": 1208.7269641907792,
      "semi_major_axis_km": 7583.930177817952,
      "eccentricity": 0.0001639,
      "inclination_deg": 87.8955,
      "raan_deg": 305.4777,
      "arg_perigee_deg": 91.9691,
      "mean_anomaly_deg": 268.1626,
      "mean_motion_rev_day": 13.14502066
    },
    {
      "epoch": "2026-03-30T13:20:09.024864Z",
      "apogee_km": 1207.039505515253,
      "perigee_km": 1204.5510656537072,
      "latitude_deg": -5.858560191775292e-05,
      "longitude_deg": -82.59661400767989,
      "height_km": 1208.7251728184804,
      "semi_major_axis_km": 7583.93228558448,
      "eccentricity": 0.00016406,
      "inclination_deg": 87.8955,
      "raan_deg": 305.3867,
      "arg_perigee_deg": 91.7876,
      "mean_anomaly_deg": 268.3441,
      "mean_motion_rev_day": 13.14501518
    },
    {
      "epoch": "2026-03-31T13:05:04.527456Z",
      "apogee_km": 1207.0542463697639,
      "perigee_km": 1204.5344093467702,
      "latitude_deg": 5.879318686118789e-06,
      "longitude_deg": -80.00049770717767,
      "height_km": 1208.7273004057172,
      "semi_major_axis_km": 7583.931327858267,
      "eccentricity": 0.00016613,
      "inclination_deg": 87.8953,
      "raan_deg": 305.1894,
      "arg_perigee_deg": 91.9078,
      "mean_anomaly_deg": 268.2242,
      "mean_motion_rev_day": 13.14501767
    }
  ]
}